CCSDS_OMM_VERS = 2.0
CREATION_DATE  = 
ORIGINATOR     = 

OBJECT_NAME    = SL-16 R/B
OBJECT_ID      = 1993-016B
CENTER_NAME    = EARTH
REF_FRAME      = TEME
TIME_SYSTEM    = UTC
MEAN_ELEMENT_THEORY = SGP/SGP4

EPOCH          = 2025-12-31T03:39:01.706112
MEAN_MOTION    = 14.15295419
ECCENTRICITY   = .0008062
INCLINATION    = 71.0088
RA_OF_ASC_NODE = 359.1311
ARG_OF_PERICENTER = 60.4163
MEAN_ANOMALY   = 299.7762

EPHEMERIS_TYPE = 0
CLASSIFICATION_TYPE = U
NORAD_CAT_ID   = 22566
ELEMENT_SET_NO = 999
REV_AT_EPOCH   = 69247
BSTAR          = .49775E-4
MEAN_MOTION_DOT = .49E-6
MEAN_MOTION_DDOT = 0

CCSDS_OMM_VERS = 2.0
CREATION_DATE  = 
ORIGINATOR     = 

OBJECT_NAME    = COSMOS 2242
OBJECT_ID      = 1993-024A
CENTER_NAME    = EARTH
REF_FRAME      = TEME
TIME_SYSTEM    = UTC
MEAN_ELEMENT_THEORY = SGP/SGP4

EPOCH          = 2025-12-31T00:40:06.036960
MEAN_MOTION    = 14.96194735
ECCENTRICITY   = .0016516
INCLINATION    = 82.5191
RA_OF_ASC_NODE = 332.3636
ARG_OF_PERICENTER = 169.9922
MEAN_ANOMALY   = 190.1632

EPHEMERIS_TYPE = 0
CLASSIFICATION_TYPE = U
NORAD_CAT_ID   = 22626
ELEMENT_SET_NO = 999
REV_AT_EPOCH   = 77012
BSTAR          = .32612E-3
MEAN_MOTION_DOT = .371E-4
MEAN_MOTION_DDOT = 0

CCSDS_OMM_VERS = 2.0
CREATION_DATE  = 
ORIGINATOR     = 

OBJECT_NAME    = SL-16 R/B
OBJECT_ID      = 1993-059B
CENTER_NAME    = EARTH
REF_FRAME      = TEME
TIME_SYSTEM    = UTC
MEAN_ELEMENT_THEORY = SGP/SGP4

EPOCH          = 2025-12-30T20:55:13.462176
MEAN_MOTION    = 14.17219147
ECCENTRICITY   = .0018943
INCLINATION    = 70.9898
RA_OF_ASC_NODE = 156.2507
ARG_OF_PERICENTER = 310.0891
MEAN_ANOMALY   = 49.8571

EPHEMERIS_TYPE = 0
CLASSIFICATION_TYPE = U
NORAD_CAT_ID   = 22803
ELEMENT_SET_NO = 999
REV_AT_EPOCH   = 66978
BSTAR          = .77297E-4
MEAN_MOTION_DOT = .108E-5
MEAN_MOTION_DDOT = 0

CCSDS_OMM_VERS = 2.0
CREATION_DATE  = 
ORIGINATOR     = 

OBJECT_NAME    = ARIANE 40 R/B
OBJECT_ID      = 1993-061H
CENTER_NAME    = EARTH
REF_FRAME      = TEME
TIME_SYSTEM    = UTC
MEAN_ELEMENT_THEORY = SGP/SGP4

EPOCH          = 2025-12-31T04:39:11.950848
MEAN_MOTION    = 14.32815620
ECCENTRICITY   = .0011691
INCLINATION    = 98.5049
RA_OF_ASC_NODE = 70.3858
ARG_OF_PERICENTER = 124.5023
MEAN_ANOMALY   = 235.7267

EPHEMERIS_TYPE = 0
CLASSIFICATION_TYPE = U
NORAD_CAT_ID   = 22830
ELEMENT_SET_NO = 999
REV_AT_EPOCH   = 68429
BSTAR          = .20438E-3
MEAN_MOTION_DOT = .515E-5
MEAN_MOTION_DDOT = 0

CCSDS_OMM_VERS = 2.0
CREATION_DATE  = 
ORIGINATOR     = 

OBJECT_NAME    = COSMOS 2278
OBJECT_ID      = 1994-023A
CENTER_NAME    = EARTH
REF_FRAME      = TEME
TIME_SYSTEM    = UTC
MEAN_ELEMENT_THEORY = SGP/SGP4

EPOCH          = 2025-12-31T03:16:43.548096
MEAN_MOTION    = 14.14352026
ECCENTRICITY   = .0007568
INCLINATION    = 71.0539
RA_OF_ASC_NODE = 318.5204
ARG_OF_PERICENTER = 146.1756
MEAN_ANOMALY   = 213.9851

EPHEMERIS_TYPE = 0
CLASSIFICATION_TYPE = U
NORAD_CAT_ID   = 23087
ELEMENT_SET_NO = 999
REV_AT_EPOCH   = 63511
BSTAR          = .22216E-3
MEAN_MOTION_DOT = .378E-5
MEAN_MOTION_DDOT = 0

CCSDS_OMM_VERS = 2.0
CREATION_DATE  = 
ORIGINATOR     = 

OBJECT_NAME    = SL-16 R/B
OBJECT_ID      = 1994-023B
CENTER_NAME    = EARTH
REF_FRAME      = TEME
TIME_SYSTEM    = UTC
MEAN_ELEMENT_THEORY = SGP/SGP4

EPOCH          = 2025-12-31T00:03:06.198912
MEAN_MOTION    = 14.14998602
ECCENTRICITY   = .0002369
INCLINATION    = 70.9973
RA_OF_ASC_NODE = 215.1347
ARG_OF_PERICENTER = 358.1176
MEAN_ANOMALY   = 1.9937

EPHEMERIS_TYPE = 0
CLASSIFICATION_TYPE = U
NORAD_CAT_ID   = 23088
ELEMENT_SET_NO = 999
REV_AT_EPOCH   = 63637
BSTAR          = .41902E-4
MEAN_MOTION_DOT = .33E-6
MEAN_MOTION_DDOT = 0

CCSDS_OMM_VERS = 2.0
CREATION_DATE  = 
ORIGINATOR     = 

OBJECT_NAME    = SL-16 R/B
OBJECT_ID      = 1994-074B
CENTER_NAME    = EARTH
REF_FRAME      = TEME
TIME_SYSTEM    = UTC
MEAN_ELEMENT_THEORY = SGP/SGP4

EPOCH          = 2025-12-30T16:15:13.667328
MEAN_MOTION    = 14.79312611
ECCENTRICITY   = .00080601
INCLINATION    = 97.7186
RA_OF_ASC_NODE = 33.2672
ARG_OF_PERICENTER = 87.1367
MEAN_ANOMALY   = 26.7453

EPHEMERIS_TYPE = 0
CLASSIFICATION_TYPE = U
NORAD_CAT_ID   = 23343
ELEMENT_SET_NO = 999
REV_AT_EPOCH   = 67704
BSTAR          = .12088909E-3
MEAN_MOTION_DOT = .851E-5
MEAN_MOTION_DDOT = 0

CCSDS_OMM_VERS = 2.0
CREATION_DATE  = 
ORIGINATOR     = 

OBJECT_NAME    = SL-16 R/B
OBJECT_ID      = 1994-077B
CENTER_NAME    = EARTH
REF_FRAME      = TEME
TIME_SYSTEM    = UTC
MEAN_ELEMENT_THEORY = SGP/SGP4

EPOCH          = 2025-12-30T19:09:55.862208
MEAN_MOTION    = 14.15550572
ECCENTRICITY   = .00050328
INCLINATION    = 70.9826
RA_OF_ASC_NODE = 137.4231
ARG_OF_PERICENTER = 269.7964
MEAN_ANOMALY   = 90.2582

EPHEMERIS_TYPE = 0
CLASSIFICATION_TYPE = U
NORAD_CAT_ID   = 23405
ELEMENT_SET_NO = 999
REV_AT_EPOCH   = 60648
BSTAR          = -.87668131E-4
MEAN_MOTION_DOT = -.219E-5
MEAN_MOTION_DDOT = 0

CCSDS_OMM_VERS = 2.0
CREATION_DATE  = 
ORIGINATOR     = 

OBJECT_NAME    = ARIANE 40+ R/B
OBJECT_ID      = 1995-021B
CENTER_NAME    = EARTH
REF_FRAME      = TEME
TIME_SYSTEM    = UTC
MEAN_ELEMENT_THEORY = SGP/SGP4

EPOCH          = 2025-12-30T19:35:07.924416
MEAN_MOTION    = 14.39710943
ECCENTRICITY   = .00065212
INCLINATION    = 98.4628
RA_OF_ASC_NODE = 72.1850
ARG_OF_PERICENTER = 357.9547
MEAN_ANOMALY   = 113.6885

EPHEMERIS_TYPE = 0
CLASSIFICATION_TYPE = U
NORAD_CAT_ID   = 23561
ELEMENT_SET_NO = 999
REV_AT_EPOCH   = 60933
BSTAR          = .18673319E-3
MEAN_MOTION_DOT = .541E-5
MEAN_MOTION_DDOT = 0

CCSDS_OMM_VERS = 2.0
CREATION_DATE  = 
ORIGINATOR     = 

OBJECT_NAME    = SL-16 R/B
OBJECT_ID      = 1995-058B
CENTER_NAME    = EARTH
REF_FRAME      = TEME
TIME_SYSTEM    = UTC
MEAN_ELEMENT_THEORY = SGP/SGP4

EPOCH          = 2025-12-30T22:38:38.659200
MEAN_MOTION    = 14.15482327
ECCENTRICITY   = .00143727
INCLINATION    = 71.0220
RA_OF_ASC_NODE = 324.5849
ARG_OF_PERICENTER = 230.7730
MEAN_ANOMALY   = 129.2118

EPHEMERIS_TYPE = 0
CLASSIFICATION_TYPE = U
NORAD_CAT_ID   = 23705
ELEMENT_SET_NO = 999
REV_AT_EPOCH   = 55812
BSTAR          = .1171642E-3
MEAN_MOTION_DOT = .182E-5
MEAN_MOTION_DDOT = 0

CCSDS_OMM_VERS = 2.0
CREATION_DATE  = 
ORIGINATOR     = 

OBJECT_NAME    = SL-16 R/B
OBJECT_ID      = 1996-051B
CENTER_NAME    = EARTH
REF_FRAME      = TEME
TIME_SYSTEM    = UTC
MEAN_ELEMENT_THEORY = SGP/SGP4

EPOCH          = 2025-12-30T21:39:24.751584
MEAN_MOTION    = 14.12398590
ECCENTRICITY   = .00194296
INCLINATION    = 70.7598
RA_OF_ASC_NODE = 320.8384
ARG_OF_PERICENTER = 239.0496
MEAN_ANOMALY   = 120.8714

EPHEMERIS_TYPE = 0
CLASSIFICATION_TYPE = U
NORAD_CAT_ID   = 24298
ELEMENT_SET_NO = 999
REV_AT_EPOCH   = 51193
BSTAR          = .47852852E-4
MEAN_MOTION_DOT = .39E-6
MEAN_MOTION_DDOT = 0

CCSDS_OMM_VERS = 2.0
CREATION_DATE  = 
ORIGINATOR     = 

OBJECT_NAME    = ORBVIEW 2 (SEASTAR)
OBJECT_ID      = 1997-037A
CENTER_NAME    = EARTH
REF_FRAME      = TEME
TIME_SYSTEM    = UTC
MEAN_ELEMENT_THEORY = SGP/SGP4

EPOCH          = 2025-12-30T09:52:24.112416
MEAN_MOTION    = 14.35431722
ECCENTRICITY   = .00012445
INCLINATION    = 98.8468
RA_OF_ASC_NODE = 161.9320
ARG_OF_PERICENTER = 259.3726
MEAN_ANOMALY   = 100.7318

EPHEMERIS_TYPE = 0
CLASSIFICATION_TYPE = U
NORAD_CAT_ID   = 24883
ELEMENT_SET_NO = 999
REV_AT_EPOCH   = 49853
BSTAR          = .21530588E-3
MEAN_MOTION_DOT = .572E-5
MEAN_MOTION_DDOT = 0

